[
    [
        "GPS BIII-10 (PRN 13)",
        "1 68791U 26087A   26138.50183508  .00000042  00000+0  00000+0 0  9998",
        "2 68791  54.9640 208.9620 0004877 271.3827  91.3555  2.00570586   241"
    ]
]